NORAD_CAT_ID,OBJECT_NAME,OBJECT_TYPE,EPOCH,MEAN_MOTION,ECCENTRICITY,INCLINATION,RA_OF_ASC_NODE,ARG_OF_PERICENTER,MEAN_ANOMALY,BSTAR,MEAN_MOTION_DOT,MEAN_MOTION_DDOT,TLE_LINE0,TLE_LINE1,TLE_LINE2,SEMIMAJOR_AXIS,PERIOD,APOGEE,PERIGEE,DECAYED
52466.0,STARLINK-3840,PAYLOAD,2023-05-28 03:40:00,15.08023939,7.56e-05,53.2173,302.6543,74.7795,285.328,7.6399e-05,9.04e-06,0.0,0 STARLINK-3840,1 52466U 22049R   23148.15278244  .00000904  00000-0  76399-4 0  9992,2 52466  53.2173 302.6543 0000756  74.7795 285.3280 15.08023939 58782,6920.376,95.489,542.764,541.718,0.0
52466.0,STARLINK-3840,PAYLOAD,2023-05-28 10:01:45,15.08024628,7.69e-05,53.2171,301.4657,74.9827,285.125,6.4464e-05,7.18e-06,0.0,0 STARLINK-3840,1 52466U 22049R   23148.41788616  .00000718  00000-0  64464-4 0  9993,2 52466  53.2171 301.4657 0000769  74.9827 285.1250 15.08024628 58988,6920.374,95.489,542.771,541.707,0.0
52466.0,STARLINK-3840,PAYLOAD,2023-05-28 16:23:30,15.0802586,7.28e-05,53.2171,300.2772,75.3102,284.797,7.0189e-05,8.07e-06,0.0,0 STARLINK-3840,1 52466U 22049R   23148.68298856  .00000807  00000-0  70189-4 0  9994,2 52466  53.2171 300.2772 0000728  75.3102 284.7970 15.08025860 58869,6920.37,95.489,542.739,541.731,0.0
52466.0,STARLINK-3840,PAYLOAD,2023-05-29 09:53:19,15.08015999,7.89e-05,53.2171,297.0091,73.849,286.2589,-1.367e-05,-4.98e-06,0.0,0 STARLINK-3840,1 52466U 22049R   23149.41203206 -.00000498  00000-0 -13670-4 0  9991,2 52466  53.2171 297.0091 0000789  73.8490 286.2589 15.08015999 59132,6920.4,95.49,542.811,541.719,0.0
52466.0,STARLINK-3840,PAYLOAD,2023-05-29 14:39:38,15.0801642,8.02e-05,53.2172,296.1176,73.7607,286.3473,-1.3546e-05,-4.96e-06,0.0,0 STARLINK-3840,1 52466U 22049R   23149.61085982 -.00000496  00000-0 -13546-4 0  9992,2 52466  53.2172 296.1176 0000802  73.7607 286.3473 15.08016420 59001,6920.399,95.49,542.819,541.709,0.0
52466.0,STARLINK-3840,PAYLOAD,2023-05-29 16:15:04,15.08019589,9.07e-05,53.2172,295.8196,85.5308,274.5787,1.3656e-05,-7.3e-07,0.0,0 STARLINK-3840,1 52466U 22049R   23149.67713295 -.00000073  00000-0  13656-4 0  9995,2 52466  53.2172 295.8196 0000907  85.5308 274.5787 15.08019589 59011,6920.389,95.489,542.882,541.627,0.0
52466.0,STARLINK-3840,PAYLOAD,2023-05-30 09:44:52,15.08017462,8.28e-05,53.2186,292.5509,91.0533,269.0554,0.00015897,2.189e-05,0.0,0 STARLINK-3840,1 52466U 22049R   23150.40616431  .00002189  00000-0  15897-3 0  9999,2 52466  53.2186 292.5509 0000828  91.0533 269.0554 15.08017462 59280,6920.396,95.49,542.834,541.688,0.0
52466.0,STARLINK-3840,PAYLOAD,2023-05-30 14:31:11,15.08005239,8.11e-05,53.2191,291.6591,95.6247,264.4838,0.00022622,3.236e-05,0.0,0 STARLINK-3840,1 52466U 22049R   23150.60499929  .00003236  00000-0  22622-3 0  9990,2 52466  53.2191 291.6591 0000811  95.6247 264.4838 15.08005239 59318,6920.433,95.49,542.859,541.737,0.0
52466.0,STARLINK-3840,PAYLOAD,2023-05-31 09:36:26,15.08019265,8.48e-05,53.2185,288.0929,94.8649,265.2439,9.1417e-05,1.138e-05,0.0,0 STARLINK-3840,1 52466U 22049R   23151.40030472  .00001138  00000-0  91417-4 0  9991,2 52466  53.2185 288.0929 0000848  94.8649 265.2439 15.08019265 59436,6920.39,95.489,542.842,541.668,0.0
52466.0,STARLINK-3840,PAYLOAD,2023-05-31 14:22:45,15.08016435,8.28e-05,53.2185,287.2015,93.466,266.6426,6.8051e-05,7.74e-06,0.0,0 STARLINK-3840,1 52466U 22049R   23151.59913619  .00000774  00000-0  68051-4 0  9997,2 52466  53.2185 287.2015 0000828  93.4660 266.6426 15.08016435 59302,6920.399,95.49,542.837,541.691,0.0
52466.0,STARLINK-3840,PAYLOAD,2023-05-31 15:58:11,15.08019278,6.28e-05,53.2162,286.9039,84.4947,275.6116,6.6967e-05,7.57e-06,0.0,0 STARLINK-3840,1 52466U 22049R   23151.66541009  .00000757  00000-0  66967-4 0  9990,2 52466  53.2162 286.9039 0000628  84.4947 275.6116 15.08019278 59310,6920.39,95.489,542.69,541.821,0.0
52466.0,STARLINK-3840,PAYLOAD,2023-06-01 09:28:00,15.08012771,7.36e-05,53.2178,283.6391,105.7331,254.3742,2.8286e-05,1.55e-06,0.0,0 STARLINK-3840,1 52466U 22049R   23152.39445208  .00000155  00000-0  28286-4 0  9999,2 52466  53.2178 283.6391 0000736 105.7331 254.3742 15.08012771 59428,6920.41,95.49,542.784,541.766,0.0
52466.0,STARLINK-3840,PAYLOAD,2023-06-02 01:22:20,15.08048,7.13e-05,53.2179,280.6679,114.7202,245.3864,0.00026742,3.882e-05,0.0,0 STARLINK-3840,1 52466U 22049R   23153.05717890  .00003882  00000-0  26742-3 0  9996,2 52466  53.2179 280.6679 0000713 114.7202 245.3864 15.08048000 59684,6920.302,95.488,542.661,541.674,0.0
52466.0,STARLINK-3840,PAYLOAD,2023-06-02 12:30:20,15.0807738,0.0001033,53.2187,278.5887,107.7173,252.3932,0.00047661,7.151e-05,0.0,0 STARLINK-3840,1 52466U 22049R   23153.52107622  .00007151  00000-0  47661-3 0  9990,2 52466  53.2187 278.5887 0001033 107.7173 252.3932 15.08077380 59750,6920.212,95.486,542.792,541.363,0.0
52466.0,STARLINK-3840,PAYLOAD,2023-06-02 14:05:46,15.08078615,0.0001041,53.2199,278.2937,106.2981,253.8125,0.00050241,7.554e-05,0.0,0 STARLINK-3840,1 52466U 22049R   23153.58734890  .00007554  00000-0  50241-3 0  9994,2 52466  53.2199 278.2937 0001041 106.2981 253.8125 15.08078615 59602,6920.209,95.486,542.794,541.353,0.0
52466.0,STARLINK-3840,PAYLOAD,2023-06-02 17:16:37,15.08095666,6.06e-05,53.217,277.6953,98.7049,261.4011,0.00060551,9.17e-05,0.0,0 STARLINK-3840,1 52466U 22049R   23153.71988045  .00009170  00000-0  60551-3 0  9993,2 52466  53.2170 277.6953 0000606  98.7049 261.4011 15.08095666 59781,6920.156,95.485,542.441,541.602,0.0
52466.0,STARLINK-3840,PAYLOAD,2023-06-03 01:13:45,15.08118848,3.88e-05,53.2168,276.2125,129.6233,230.4793,0.00076892,0.00011733,0.0,0 STARLINK-3840,1 52466U 22049R   23154.05122225  .00011733  00000-0  76892-3 0  9994,2 52466  53.2168 276.2125 0000388 129.6233 230.4793 15.08118848 59837,6920.086,95.483,542.219,541.682,0.0
52466.0,STARLINK-3840,PAYLOAD,2023-06-03 07:35:26,15.08163353,0.0001129,53.2179,275.0239,92.7746,267.3375,0.0010827,0.0001667,0.0,0 STARLINK-3840,1 52466U 22049R   23154.31627384  .00016670  00000-0  10827-2 0  9999,2 52466  53.2179 275.0239 0001129  92.7746 267.3375 15.08163353 59875,6919.949,95.48,542.596,541.033,0.0
52466.0,STARLINK-3840,PAYLOAD,2023-06-03 13:57:08,15.08167711,8.69e-05,53.2175,273.8332,85.4937,274.6154,0.0010018,0.00015402,0.0,0 STARLINK-3840,1 52466U 22049R   23154.58135374  .00015402  00000-0  10018-2 0  9995,2 52466  53.2175 273.8332 0000869  85.4937 274.6154 15.08167711 59757,6919.936,95.48,542.402,541.2,0.0
52466.0,STARLINK-3840,PAYLOAD,2023-06-03 17:07:58,15.08188542,6.3e-05,53.2173,273.2301,86.7078,273.3986,0.0011508,0.00017752,0.0,0 STARLINK-3840,1 52466U 22049R   23154.71387296  .00017752  00000-0  11508-2 0  9997,2 52466  53.2173 273.2301 0000630  86.7078 273.3986 15.08188542 59935,6919.872,95.479,542.173,541.301,0.0
52466.0,STARLINK-3840,PAYLOAD,2023-06-04 01:05:04,15.08227547,5.43e-05,53.2179,271.7483,75.0089,285.0963,0.001113,0.00017176,0.0,0 STARLINK-3840,1 52466U 22049R   23155.04518976  .00017176  00000-0  11130-2 0  9996,2 52466  53.2179 271.7483 0000543  75.0089 285.0963 15.08227547 59980,6919.753,95.476,541.994,541.242,0.0
52466.0,STARLINK-3840,PAYLOAD,2023-06-04 13:48:23,15.08291898,9.82e-05,53.2168,269.3712,65.5236,294.5858,0.0011049,0.00017079,0.0,0 STARLINK-3840,1 52466U 22049R   23155.57527698  .00017079  00000-0  11049-2 0  9996,2 52466  53.2168 269.3712 0000982  65.5236 294.5858 15.08291898 59901,6919.556,95.472,542.101,540.742,0.0
52466.0,STARLINK-3840,PAYLOAD,2023-06-04 15:23:47,15.08320277,4.14e-05,53.2172,269.0716,90.7942,269.3097,0.0011928,0.00018479,0.0,0 STARLINK-3840,1 52466U 22049R   23155.64151899  .00018479  00000-0  11928-2 0  9991,2 52466  53.2172 269.0716 0000414  90.7942 269.3097 15.08320277 60070,6919.469,95.47,541.621,541.048,0.0
52466.0,STARLINK-3840,PAYLOAD,2023-06-04 21:45:26,15.08342095,7.94e-05,53.2169,267.8841,39.9514,320.1536,0.0012711,0.00019726,0.0,0 STARLINK-3840,1 52466U 22049R   23155.90655472  .00019726  00000-0  12711-2 0  9993,2 52466  53.2169 267.8841 0000794  39.9514 320.1536 15.08342095 59953,6919.403,95.469,541.817,540.718,0.0
52466.0,STARLINK-3840,PAYLOAD,2023-06-05 00:56:15,15.08352081,3.9e-05,53.2169,267.2862,112.0006,248.1028,0.0012687,0.00019694,0.0,0 STARLINK-3840,1 52466U 22049R   23156.03907024  .00019694  00000-0  12687-2 0  9997,2 52466  53.2169 267.2862 0000390 112.0006 248.1028 15.08352081 60134,6919.372,95.468,541.507,540.967,0.0
52466.0,STARLINK-3840,PAYLOAD,2023-06-05 07:17:53,15.08400834,9.63e-05,53.2171,266.1048,36.3071,323.7986,0.0010555,0.0001635,0.0,0 STARLINK-3840,1 52466U 22049R   23156.30409121  .00016350  00000-0  10555-2 0  9990,2 52466  53.2171 266.1048 0000963  36.3071 323.7986 15.08400834 60174,6919.223,95.465,541.754,540.422,0.0
52466.0,STARLINK-3840,PAYLOAD,2023-06-05 13:39:31,15.08412386,6.36e-05,53.2161,264.9126,44.8196,315.2847,0.0011129,0.00017263,0.0,0 STARLINK-3840,1 52466U 22049R   23156.56911916  .00017263  00000-0  11129-2 0  9990,2 52466  53.2161 264.9126 0000636  44.8196 315.2847 15.08412386 60059,6919.188,95.465,541.493,540.613,0.0
52466.0,STARLINK-3840,PAYLOAD,2023-06-05 16:50:20,15.08429352,6.3e-05,53.2157,264.3165,64.7331,295.3726,0.0010369,0.00016069,0.0,0 STARLINK-3840,1 52466U 22049R   23156.70162707  .00016069  00000-0  10369-2 0  9990,2 52466  53.2157 264.3165 0000630  64.7331 295.3726 15.08429352 60232,6919.136,95.464,541.437,540.565,0.0
52466.0,STARLINK-3840,PAYLOAD,2023-06-06 07:08:56,15.08516504,7.48e-05,53.2169,261.6413,32.4786,327.6252,0.00096165,0.00014915,0.0,0 STARLINK-3840,1 52466U 22049R   23157.29787881  .00014915  00000-0  96165-3 0  9998,2 52466  53.2169 261.6413 0000748  32.4786 327.6252 15.08516504 60326,6918.869,95.458,541.252,540.217,0.0
52466.0,STARLINK-3840,PAYLOAD,2023-06-06 11:55:07,15.08545245,8.71e-05,53.2171,260.7505,51.0026,309.1043,0.0011393,0.00017745,0.0,0 STARLINK-3840,1 52466U 22049R   23157.49661840  .00017745  00000-0  11393-2 0  9999,2 52466  53.2171 260.7505 0000871  51.0026 309.1043 15.08545245 60194,6918.781,95.456,541.249,540.044,0.0
